NORAD_CAT_ID,OBJECT_NAME,OBJECT_TYPE,EPOCH,MEAN_MOTION,ECCENTRICITY,INCLINATION,RA_OF_ASC_NODE,ARG_OF_PERICENTER,MEAN_ANOMALY,BSTAR,MEAN_MOTION_DOT,MEAN_MOTION_DDOT,TLE_LINE0,TLE_LINE1,TLE_LINE2,SEMIMAJOR_AXIS,PERIOD,APOGEE,PERIGEE,DECAYED
52846.0,STARLINK-4212,PAYLOAD,2024-02-12 15:52:00,15.08858054,0.0001637,53.2157,188.0751,72.5405,287.5766,0.0002397,3.531e-05,0.0,0 STARLINK-4212,1 52846U 22062S   24043.66112146  .00003531  00000-0  23970-3 0  9993,2 52846  53.2157 188.0751 0001637  72.5405 287.5766 15.08858054 91656,6917.825,95.436,540.823,538.558,0.0
52846.0,STARLINK-4212,PAYLOAD,2024-02-13 14:07:25,15.08840986,0.0001756,53.2169,183.9125,116.0288,244.0885,0.00030659,4.595e-05,0.0,0 STARLINK-4212,1 52846U 22062S   24044.58848401  .00004595  00000-0  30659-3 0  9998,2 52846  53.2169 183.9125 0001756 116.0288 244.0885 15.08840986 91793,6917.877,95.437,540.957,538.528,0.0
52846.0,STARLINK-4212,PAYLOAD,2024-02-13 18:53:34,15.08840965,0.0001498,53.2163,183.0179,74.8449,285.2708,0.00058365,9.013e-05,0.0,0 STARLINK-4212,1 52846U 22062S   24044.78720841  .00009013  00000-0  58365-3 0  9991,2 52846  53.2163 183.0179 0001498  74.8449 285.2708 15.08840965 92317,6917.877,95.437,540.779,538.706,0.0
52846.0,STARLINK-4212,PAYLOAD,2024-02-14 12:22:49,15.08835848,0.000155,53.2158,179.743,104.7963,255.3201,0.0001974,2.855e-05,0.0,0 STARLINK-4212,1 52846U 22062S   24045.51585249  .00002855  00000-0  19740-3 0  9995,2 52846  53.2158 179.7430 0001550 104.7963 255.3201 15.08835848 92428,6917.893,95.438,540.83,538.686,0.0
52846.0,STARLINK-4212,PAYLOAD,2024-02-14 13:58:12,15.08836109,0.0001474,53.216,179.4488,91.5998,268.5163,0.00012775,1.746e-05,0.0,0 STARLINK-4212,1 52846U 22062S   24045.58209118  .00001746  00000-0  12775-3 0  9999,2 52846  53.2160 179.4488 0001474  91.5998 268.5163 15.08836109 91947,6917.892,95.438,540.777,538.738,0.0
52846.0,STARLINK-4212,PAYLOAD,2024-02-14 15:33:35,15.0883751,0.0001436,53.216,179.152,81.4703,278.6452,0.0001724,2.457e-05,0.0,0 STARLINK-4212,1 52846U 22062S   24045.64833168  .00002457  00000-0  17240-3 0  9996,2 52846  53.2160 179.1520 0001436  81.4703 278.6452 15.08837510 91952,6917.888,95.438,540.746,538.76,0.0
52846.0,STARLINK-4212,PAYLOAD,2024-02-15 13:48:59,15.0885427,0.0001517,53.2165,174.9894,70.0847,290.0309,0.0004989,7.664e-05,0.0,0 STARLINK-4212,1 52846U 22062S   24046.57568944  .00007664  00000-0  49890-3 0  9997,2 52846  53.2165 174.9894 0001517  70.0847 290.0309 15.08854270 92094,6917.837,95.437,540.751,538.652,0.0
52846.0,STARLINK-4212,PAYLOAD,2024-02-15 18:35:08,15.08869136,0.000148,53.2162,174.0978,65.7287,294.3859,0.00090171,0.00014103,0.0,0 STARLINK-4212,1 52846U 22062S   24046.77440487  .00014103  00000-0  90171-3 0  9994,2 52846  53.2162 174.0978 0001480  65.7287 294.3859 15.08869136 92615,6917.791,95.436,540.68,538.633,0.0
52846.0,STARLINK-4212,PAYLOAD,2024-02-16 00:56:41,15.0885618,0.0001552,53.2162,172.9088,64.0295,296.0856,0.00030682,4.601e-05,0.0,0 STARLINK-4212,1 52846U 22062S   24047.03936702  .00004601  00000-0  30682-3 0  9997,2 52846  53.2162 172.9088 0001552  64.0295 296.0856 15.08856180 92650,6917.831,95.437,540.77,538.622,0.0
52846.0,STARLINK-4212,PAYLOAD,2024-02-16 12:04:23,15.08847955,0.0001432,53.2166,170.8288,80.1341,279.9813,0.00017446,2.49e-05,0.0,0 STARLINK-4212,1 52846U 22062S   24047.50304636  .00002490  00000-0  17446-3 0  9991,2 52846  53.2166 170.8288 0001432  80.1341 279.9813 15.08847955 92722,6917.856,95.437,540.712,538.73,0.0
52846.0,STARLINK-4212,PAYLOAD,2024-02-16 15:15:09,15.08855603,0.000148,53.217,170.2351,85.1766,274.9395,0.00056537,8.725e-05,0.0,0 STARLINK-4212,1 52846U 22062S   24047.63552483  .00008725  00000-0  56537-3 0  9991,2 52846  53.2170 170.2351 0001480  85.1766 274.9395 15.08855603 92258,6917.833,95.437,540.722,538.674,0.0
52846.0,STARLINK-4212,PAYLOAD,2024-02-17 13:30:33,15.08846859,0.0001126,53.2151,166.0693,61.1453,298.9652,0.00059752,9.236e-05,0.0,0 STARLINK-4212,1 52846U 22062S   24048.56288924  .00009236  00000-0  59752-3 0  9990,2 52846  53.2151 166.0693 0001126  61.1453 298.9652 15.08846859 92393,6917.859,95.437,540.503,538.945,0.0
52846.0,STARLINK-4212,PAYLOAD,2024-02-17 16:41:19,15.08849986,0.0001261,53.2156,165.4775,83.4127,276.7009,0.00070411,0.00010939,0.0,0 STARLINK-4212,1 52846U 22062S   24048.69536862  .00010939  00000-0  70411-3 0  9998,2 52846  53.2156 165.4775 0001261  83.4127 276.7009 15.08849986 92908,6917.85,95.437,540.587,538.843,0.0
52846.0,STARLINK-4212,PAYLOAD,2024-02-18 00:38:15,15.08835227,0.0001918,53.2154,163.9873,84.4174,275.7037,0.00051323,7.888e-05,0.0,0 STARLINK-4212,1 52846U 22062S   24049.02656987  .00007888  00000-0  51323-3 0  9997,2 52846  53.2154 163.9873 0001918  84.4174 275.7037 15.08835227 92958,6917.895,95.438,541.087,538.433,0.0
52846.0,STARLINK-4212,PAYLOAD,2024-02-18 14:56:43,15.08847473,0.0001854,53.2158,161.3137,82.4702,277.65,0.00089485,0.00013985,0.0,0 STARLINK-4212,1 52846U 22062S   24049.62273019  .00013985  00000-0  89485-3 0  9999,2 52846  53.2158 161.3137 0001854  82.4702 277.6500 15.08847473 92559,6917.858,95.437,541.005,538.44,0.0
52846.0,STARLINK-4212,PAYLOAD,2024-02-19 11:36:45,15.08835629,0.0001688,53.2167,157.4449,85.4787,274.6398,0.00026271,3.895e-05,0.0,0 STARLINK-4212,1 52846U 22062S   24050.48385507  .00003895  00000-0  26271-3 0  9994,2 52846  53.2167 157.4449 0001688  85.4787 274.6398 15.08835629 93173,6917.894,95.438,540.926,538.591,0.0
52846.0,STARLINK-4212,PAYLOAD,2024-02-19 14:47:31,15.0883937,0.0001547,53.2167,156.852,95.0775,265.0393,0.00026688,3.962e-05,0.0,0 STARLINK-4212,1 52846U 22062S   24050.61633423  .00003962  00000-0  26688-3 0  9999,2 52846  53.2167 156.8520 0001547  95.0775 265.0393 15.08839370 92708,6917.882,95.438,540.818,538.677,0.0
52846.0,STARLINK-4212,PAYLOAD,2024-02-20 11:27:32,15.08836451,0.0001659,53.2165,152.9891,89.6047,270.5136,0.00018321,2.629e-05,0.0,0 STARLINK-4212,1 52846U 22062S   24051.47746021  .00002629  00000-0  18321-3 0  9997,2 52846  53.2165 152.9891 0001659  89.6047 270.5136 15.08836451 93321,6917.891,95.438,540.904,538.609,0.0
52846.0,STARLINK-4212,PAYLOAD,2024-02-20 13:02:55,15.0884167,0.0001655,53.2162,152.6908,84.2557,275.8624,0.00022808,3.344e-05,0.0,0 STARLINK-4212,1 52846U 22062S   24051.54369866  .00003344  00000-0  22808-3 0  9993,2 52846  53.2162 152.6908 0001655  84.2557 275.8624 15.08841670 92842,6917.875,95.437,540.885,538.595,0.0
52846.0,STARLINK-4212,PAYLOAD,2024-02-21 12:53:42,15.08852943,0.0001499,53.2159,148.2305,83.6929,276.4234,0.00042113,6.423e-05,0.0,0 STARLINK-4212,1 52846U 22062S   24052.53729556  .00006423  00000-0  42113-3 0  9991,2 52846  53.2159 148.2305 0001499  83.6929 276.4234 15.08852943 92997,6917.841,95.437,540.743,538.669,0.0
52846.0,STARLINK-4212,PAYLOAD,2024-02-22 12:44:29,15.08842967,0.0001672,53.2161,143.7654,90.7805,269.3378,5.4974e-05,5.87e-06,0.0,0 STARLINK-4212,1 52846U 22062S   24053.53089702  .00000587  00000-0  54974-4 0  9998,2 52846  53.2161 143.7654 0001672  90.7805 269.3378 15.08842967 93639,6917.871,95.437,540.893,538.58,0.0
52846.0,STARLINK-4212,PAYLOAD,2024-02-23 12:35:16,15.08849473,0.0001567,53.2168,139.3114,95.5776,264.5395,9.9016e-05,1.289e-05,0.0,0 STARLINK-4212,1 52846U 22062S   24054.52449335  .00001289  00000-0  99016-4 0  9996,2 52846  53.2168 139.3114 0001567  95.5776 264.5395 15.08849473 93298,6917.851,95.437,540.8,538.632,0.0
52846.0,STARLINK-4212,PAYLOAD,2024-02-23 22:07:35,15.08843418,0.000131,53.2144,137.524,79.4572,280.6568,5.1695e-05,5.35e-06,0.0,0 STARLINK-4212,1 52846U 22062S   24054.92193549  .00000535  00000-0  51695-4 0  9997,2 52846  53.2144 137.5240 0001310  79.4572 280.6568 15.08843418 93354,6917.87,95.437,540.641,538.829,0.0
52846.0,STARLINK-4212,PAYLOAD,2024-02-24 12:26:03,15.08838236,0.0001665,53.2177,134.8511,97.7338,262.3843,8.4106e-05,1.051e-05,0.0,0 STARLINK-4212,1 52846U 22062S   24055.51810108  .00001051  00000-0  84106-4 0  9997,2 52846  53.2177 134.8511 0001665  97.7338 262.3843 15.08838236 93936,6917.886,95.438,540.903,538.599,0.0
52846.0,STARLINK-4212,PAYLOAD,2024-02-24 14:01:27,15.08839726,0.0001668,53.2178,134.5532,95.7322,264.3861,9.918e-05,1.291e-05,0.0,0 STARLINK-4212,1 52846U 22062S   24055.58434050  .00001291  00000-0  99180-4 0  9996,2 52846  53.2178 134.5532 0001668  95.7322 264.3861 15.08839726 93455,6917.881,95.438,540.9,538.592,0.0
52846.0,STARLINK-4212,PAYLOAD,2024-02-25 13:52:13,15.08846474,0.0001514,53.2165,130.0905,90.2898,269.8268,0.00011824,1.595e-05,0.0,0 STARLINK-4212,1 52846U 22062S   24056.57793771  .00001595  00000-0  11824-3 0  9999,2 52846  53.2165 130.0905 0001514  90.2898 269.8268 15.08846474 93600,6917.861,95.437,540.773,538.678,0.0
52846.0,STARLINK-4212,PAYLOAD,2024-02-25 21:49:09,15.08846403,0.0001472,53.2163,128.6024,88.5528,271.5633,8.3463e-05,1.041e-05,0.0,0 STARLINK-4212,1 52846U 22062S   24056.90913732  .00001041  00000-0  83463-4 0  9992,2 52846  53.2163 128.6024 0001472  88.5528 271.5633 15.08846403 93659,6917.861,95.437,540.744,538.708,0.0
52846.0,STARLINK-4212,PAYLOAD,2024-02-26 04:10:42,15.08840772,0.0001577,53.2173,127.4144,92.9391,267.1782,0.0001806,2.587e-05,0.0,0 STARLINK-4212,1 52846U 22062S   24057.17410118  .00002587  00000-0  18060-3 0  9998,2 52846  53.2173 127.4144 0001577  92.9391 267.1782 15.08840772 94181,6917.878,95.438,540.834,538.652,0.0
52846.0,STARLINK-4212,PAYLOAD,2024-02-26 12:07:37,15.08849399,0.0001595,53.2163,125.9281,92.1393,267.9782,0.00021807,3.185e-05,0.0,0 STARLINK-4212,1 52846U 22062S   24057.50529654  .00003185  00000-0  21807-3 0  9999,2 52846  53.2163 125.9281 0001595  92.1393 267.9782 15.08849399 93742,6917.852,95.437,540.82,538.613,0.0
52846.0,STARLINK-4212,PAYLOAD,2024-02-27 04:01:29,15.08839331,0.0001543,53.2168,122.9516,94.1103,266.0065,-2.1867e-05,-6.36e-06,0.0,0 STARLINK-4212,1 52846U 22062S   24058.16770218 -.00000636  00000-0 -21867-4 0  9993,2 52846  53.2168 122.9516 0001543  94.1103 266.0065 15.08839331 94334,6917.882,95.438,540.815,538.68,0.0
